NORAD_CAT_ID,OBJECT_NAME,OBJECT_TYPE,EPOCH,MEAN_MOTION,ECCENTRICITY,INCLINATION,RA_OF_ASC_NODE,ARG_OF_PERICENTER,MEAN_ANOMALY,BSTAR,MEAN_MOTION_DOT,MEAN_MOTION_DDOT,TLE_LINE0,TLE_LINE1,TLE_LINE2,SEMIMAJOR_AXIS,PERIOD,APOGEE,PERIGEE,DECAYED
55764.0,STARLINK-5499,PAYLOAD,2023-09-03 11:58:00,14.98329114,0.0003129,70.0008,19.6708,272.1133,87.9668,2.1078e-05,1.58e-06,0.0,0 STARLINK-5499,1 55764U 23028Z   23246.49861119  .00000158  00000-0  21078-4 0  9994,2 55764  70.0008  19.6708 0003129 272.1133  87.9668 14.98329114 28993,6950.196,96.107,574.235,569.886,0.0
55764.0,STARLINK-5499,PAYLOAD,2023-09-04 02:23:12,14.98329251,0.0003352,70.0007,18.1551,269.741,90.3365,5.5165e-05,5.65e-06,0.0,0 STARLINK-5499,1 55764U 23028Z   23247.09944883  .00000565  00000-0  55165-4 0  9997,2 55764  70.0007  18.1551 0003352 269.7410  90.3365 14.98329251 29085,6950.195,96.107,574.39,569.731,0.0
55764.0,STARLINK-5499,PAYLOAD,2023-09-04 12:00:01,14.9832107,0.0002939,70.0007,17.146,264.3324,95.75,2.6632e-06,-6.1e-07,0.0,0 STARLINK-5499,1 55764U 23028Z   23247.50001663 -.00000061  00000-0  26632-5 0  9993,2 55764  70.0007  17.1460 0002939 264.3324  95.7500 14.98321070 29146,6950.221,96.108,574.128,570.043,0.0
55764.0,STARLINK-5499,PAYLOAD,2023-09-05 02:25:13,14.98328153,0.0003248,70.0012,15.6318,271.2731,88.8056,-1.1191e-05,-2.27e-06,0.0,0 STARLINK-5499,1 55764U 23028Z   23248.10085422 -.00000227  00000-0 -11191-4 0  9993,2 55764  70.0012  15.6318 0003248 271.2731  88.8056 14.98328153 29238,6950.199,96.107,574.321,569.806,0.0
55764.0,STARLINK-5499,PAYLOAD,2023-09-06 07:15:38,14.98327427,0.0003392,70.0014,12.6019,271.1222,88.9548,8.6791e-05,9.43e-06,0.0,0 STARLINK-5499,1 55764U 23028Z   23249.30253095  .00000943  00000-0  86791-4 0  9990,2 55764  70.0014  12.6019 0003392 271.1222  88.9548 14.98327427 29419,6950.201,96.107,574.423,569.708,0.0
55764.0,STARLINK-5499,PAYLOAD,2023-09-06 08:51:46,14.98328138,0.0003285,70.0013,12.4338,272.2146,87.8637,9.7594e-05,1.072e-05,0.0,0 STARLINK-5499,1 55764U 23028Z   23249.36929060  .00001072  00000-0  97594-4 0  9995,2 55764  70.0013  12.4338 0003285 272.2146  87.8637 14.98328138 29426,6950.199,96.107,574.347,569.781,0.0
55764.0,STARLINK-5499,PAYLOAD,2023-09-07 08:53:47,14.98331197,0.00031,70.0017,9.9096,271.2377,88.8427,3.3332e-05,3.05e-06,0.0,0 STARLINK-5499,1 55764U 23028Z   23250.37068985  .00000305  00000-0  33332-4 0  9996,2 55764  70.0017   9.9096 0003100 271.2377  88.8427 14.98331197 29576,6950.189,96.107,574.209,569.9,0.0
55764.0,STARLINK-5499,PAYLOAD,2023-09-08 00:55:06,14.98413159,0.0003585,70.0029,8.2269,282.3161,77.7597,-0.0014377,-0.00017243,0.0,0 STARLINK-5499,1 55764U 23028Z   23251.03826825 -.00017243  00000-0 -14377-2 0  9992,2 55764  70.0029   8.2269 0003585 282.3161  77.7597 14.98413159 29679,6949.936,96.102,574.292,569.309,0.0
55764.0,STARLINK-5499,PAYLOAD,2023-09-08 10:31:56,14.98329915,0.0002984,70.0021,7.2168,268.2477,91.834,-2.5923e-05,-4.02e-06,0.0,0 STARLINK-5499,1 55764U 23028Z   23251.43885117 -.00000402  00000-0 -25923-4 0  9995,2 55764  70.0021   7.2168 0002984 268.2477  91.8340 14.98329915 29739,6950.193,96.107,574.132,569.984,0.0
55764.0,STARLINK-5499,PAYLOAD,2023-09-08 13:44:13,14.98328105,0.0003292,70.0018,6.8795,272.1775,87.9007,-6.7046e-05,-8.93e-06,0.0,0 STARLINK-5499,1 55764U 23028Z   23251.57237344 -.00000893  00000-0 -67046-4 0  9999,2 55764  70.0018   6.8795 0003292 272.1775  87.9007 14.98328105 29752,6950.199,96.107,574.352,569.776,0.0
55764.0,STARLINK-5499,PAYLOAD,2023-09-08 16:56:28,14.9833165,0.0003177,70.0017,6.543,271.9599,88.1196,-4.6645e-06,-1.49e-06,0.0,0 STARLINK-5499,1 55764U 23028Z   23251.70588964 -.00000149  00000-0 -46645-5 0  9998,2 55764  70.0017   6.5430 0003177 271.9599  88.1196 14.98331650 29770,6950.188,96.107,574.261,569.845,0.0
55764.0,STARLINK-5499,PAYLOAD,2023-09-09 10:33:58,14.98322058,0.0003292,70.0001,4.6913,272.4482,87.63,-6.8588e-05,-9.11e-06,0.0,0 STARLINK-5499,1 55764U 23028Z   23252.44025875 -.00000911  00000-0 -68588-4 0  9993,2 55764  70.0001   4.6913 0003292 272.4482  87.6300 14.98322058 29888,6950.217,96.108,574.37,569.794,0.0
55764.0,STARLINK-5499,PAYLOAD,2023-09-09 13:46:15,14.98310243,0.0002855,70.0016,4.3553,267.7159,92.3673,-1.9782e-05,-3.29e-06,0.0,0 STARLINK-5499,1 55764U 23028Z   23252.57378587 -.00000329  00000-0 -19782-4 0  9993,2 55764  70.0016   4.3553 0002855 267.7159  92.3673 14.98310243 29905,6950.254,96.108,574.103,570.135,0.0
55764.0,STARLINK-5499,PAYLOAD,2023-09-10 10:35:59,14.9832683,0.0003328,70.0017,2.167,271.4803,88.5974,6.202e-05,6.47e-06,0.0,0 STARLINK-5499,1 55764U 23028Z   23253.44165709  .00000647  00000-0  62020-4 0  9994,2 55764  70.0017   2.1670 0003328 271.4803  88.5974 14.98326830 30032,6950.203,96.107,574.381,569.755,0.0
55764.0,STARLINK-5499,PAYLOAD,2023-09-10 13:48:15,14.98329595,0.0003266,70.0015,1.83,268.7319,91.3466,6.1928e-05,6.46e-06,0.0,0 STARLINK-5499,1 55764U 23028Z   23253.57517528  .00000646  00000-0  61928-4 0  9993,2 55764  70.0015   1.8300 0003266 268.7319  91.3466 14.98329595 30059,6950.194,96.107,574.329,569.789,0.0
55764.0,STARLINK-5499,PAYLOAD,2023-09-10 17:00:34,14.98277403,0.0003239,70.002,1.4935,269.1355,90.9433,-0.00035174,-4.282e-05,0.0,0 STARLINK-5499,1 55764U 23028Z   23253.70873649 -.00004282  00000-0 -35174-3 0  9992,2 55764  70.0020   1.4935 0003239 269.1355  90.9433 14.98277403 30071,6950.356,96.11,574.472,569.969,0.0
55764.0,STARLINK-5499,PAYLOAD,2023-09-11 07:23:16,15.00278598,0.0011011,70.0013,359.9734,222.2224,137.8089,0.021468,0.002806,0.0,0 STARLINK-5499,1 55764U 23028Z   23254.30782899  .00280600  00000-0  21468-1 0  9992,2 55764  70.0013 359.9734 0011011 222.2224 137.8089 15.00278598 30161,6944.174,95.982,573.685,558.392,0.0
55764.0,STARLINK-5499,PAYLOAD,2023-09-11 20:00:01,14.98341665,0.0003363,70.0032,358.6571,274.1164,30.6171,-0.001509,-0.00018058,0.0,0 STARLINK-5499,1 55764U 23028Z   23254.83334491 -.00018058  00000-0 -15090-2 0  9994,2 55764  70.0032 358.6571 0003363 274.1164  30.6171 14.98341665 30239,6950.157,96.106,574.359,569.684,0.0
55764.0,STARLINK-5499,PAYLOAD,2023-09-12 01:03:07,14.98496043,0.0002586,70.0047,358.1251,184.9773,175.1361,0.0020241,0.00024246,0.0,0 STARLINK-5499,1 55764U 23028Z   23255.04383379  .00024246  00000-0  20241-2 0  9995,2 55764  70.0047 358.1251 0002586 184.9773 175.1361 14.98496043 30276,6949.679,96.096,573.342,569.747,0.0
55764.0,STARLINK-5499,PAYLOAD,2023-09-12 12:16:07,14.98349545,0.0003128,70.0021,356.9489,262.7338,97.3465,0.0001488,1.684e-05,0.0,0 STARLINK-5499,1 55764U 23028Z   23255.51119649  .00001684  00000-0  14880-3 0  9998,2 55764  70.0021 356.9489 0003128 262.7338  97.3465 14.98349545 30344,6950.132,96.106,574.171,569.823,0.0
55764.0,STARLINK-5499,PAYLOAD,2023-09-12 13:52:17,14.98321022,0.0002951,70.0021,356.7806,269.5219,90.5602,-0.00013951,-1.757e-05,0.0,0 STARLINK-5499,1 55764U 23028Z   23255.57798175 -.00001757  00000-0 -13951-3 0  9992,2 55764  70.0021 356.7806 0002951 269.5219  90.5602 14.98321022 30350,6950.221,96.108,574.137,570.035,0.0
55764.0,STARLINK-5499,PAYLOAD,2023-09-12 17:04:31,14.98346321,0.0003088,70.0016,356.4437,272.3967,87.6838,0.00011639,1.297e-05,0.0,0 STARLINK-5499,1 55764U 23028Z   23255.71147907  .00001297  00000-0  11639-3 0  9997,2 55764  70.0016 356.4437 0003088 272.3967  87.6838 14.98346321 30374,6950.142,96.106,574.154,569.861,0.0
55764.0,STARLINK-5499,PAYLOAD,2023-09-12 23:29:04,14.98341857,0.0003523,70.0022,355.7706,272.0709,88.0047,1.6953e-05,1.09e-06,0.0,0 STARLINK-5499,1 55764U 23028Z   23255.97852063  .00000109  00000-0  16953-4 0  9997,2 55764  70.0022 355.7706 0003523 272.0709  88.0047 14.98341857 30418,6950.156,96.106,574.47,569.573,0.0
55764.0,STARLINK-5499,PAYLOAD,2023-09-13 10:42:00,14.98341196,0.0003185,70.0021,354.5938,267.4478,92.6316,-3.3474e-05,-4.93e-06,0.0,0 STARLINK-5499,1 55764U 23028Z   23256.44584017 -.00000493  00000-0 -33474-4 0  9996,2 55764  70.0021 354.5938 0003185 267.4478  92.6316 14.98341196 30489,6950.158,96.106,574.237,569.81,0.0
55764.0,STARLINK-5499,PAYLOAD,2023-09-13 17:06:31,14.98364729,0.0002743,70.0022,353.9198,269.7462,90.3382,-0.00021257,-2.631e-05,0.0,0 STARLINK-5499,1 55764U 23028Z   23256.71286745 -.00002631  00000-0 -21257-3 0  9994,2 55764  70.0022 353.9198 0002743 269.7462  90.3382 14.98364729 30528,6950.085,96.105,573.857,570.044,0.0
55764.0,STARLINK-5499,PAYLOAD,2023-09-13 23:31:05,14.98336226,0.0003189,70.0027,353.2474,266.3425,93.737,-0.00023007,-2.838e-05,0.0,0 STARLINK-5499,1 55764U 23028Z   23256.97992331 -.00002838  00000-0 -23007-3 0  9991,2 55764  70.0027 353.2474 0003189 266.3425  93.7370 14.98336226 30569,6950.174,96.107,574.255,569.822,0.0
55764.0,STARLINK-5499,PAYLOAD,2023-09-14 10:44:03,14.98312194,0.000307,70.0021,352.0691,265.5816,94.4993,-0.00026539,-3.257e-05,0.0,0 STARLINK-5499,1 55764U 23028Z   23257.44726327 -.00003257  00000-0 -26539-3 0  9993,2 55764  70.0021 352.0691 0003070 265.5816  94.4993 14.98312194 30630,6950.248,96.108,574.247,569.979,0.0
55764.0,STARLINK-5499,PAYLOAD,2023-09-14 12:20:11,14.9831233,0.0003258,70.0019,351.9009,273.0819,86.9967,-0.00025038,-3.078e-05,0.0,0 STARLINK-5499,1 55764U 23028Z   23257.51402424 -.00003078  00000-0 -25038-3 0  9994,2 55764  70.0019 351.9009 0003258 273.0819  86.9967 14.98312330 30643,6950.248,96.108,574.377,569.848,0.0
55764.0,STARLINK-5499,PAYLOAD,2023-09-14 15:32:27,14.98314799,0.0003021,70.0023,351.5647,265.5349,94.5465,-0.00021323,-2.635e-05,0.0,0 STARLINK-5499,1 55764U 23028Z   23257.64754218 -.00002635  00000-0 -21323-3 0  9990,2 55764  70.0023 351.5647 0003021 265.5349  94.5465 14.98314799 30665,6950.24,96.108,574.205,570.005,0.0
55764.0,STARLINK-5499,PAYLOAD,2023-09-14 23:33:07,14.98314242,0.0003113,70.0023,350.7226,273.6234,86.4569,-2.6672e-05,-4.11e-06,0.0,0 STARLINK-5499,1 55764U 23028Z   23257.98134059 -.00000411  00000-0 -26672-4 0  9995,2 55764  70.0023 350.7226 0003113 273.6234  86.4569 14.98314242 30718,6950.242,96.108,574.27,569.943,0.0
